IRIDIUM 26              
1 24903U 97043A   25331.93999194  .00000483  00000+0  15552-3 0  9993
2 24903  86.3974  41.7822 0001968  96.1302 264.0120 14.37310322480267
IRIDIUM 22              
1 24907U 97043E   25331.93625026  .00000425  00000+0  13922-3 0  9992
2 24907  86.3978  45.4642 0002149  98.0654 262.0787 14.36105713480272
DUMMY MASS 1            
1 24925U 97048A   25331.73356916  .00000532  00000+0  56096-4 0  9993
2 24925  86.3352  59.6494 0004387 295.1423  64.9346 14.87162207529439
DUMMY MASS 2            
1 24926U 97048B   25331.79032766  .00000533  00000+0  56486-4 0  9998
2 24926  86.3353  61.2614 0005417 310.2705  49.8046 14.86912854529216
IRIDIUM 29              
1 24944U 97051A   25331.83026623  .00000553  00000+0  18128-3 0  9994
2 24944  86.3953  75.2029 0002269  96.0772 264.0684 14.36642058476763
IRIDIUM 33              
1 24946U 97051C   25331.99365374  .00000428  00000+0  14350-3 0  9996
2 24946  86.3869  74.4104 0005823 259.6988 100.3552 14.35020512476233
IRIDIUM 28              
1 24948U 97051E   25331.83981216  .00000518  00000+0  16648-3 0  9992
2 24948  86.3959  72.6204 0001553  98.1985 261.9389 14.37542692477351
IRIDIUM 36              
1 24967U 97056C   25331.84719018  .00000526  00000+0  16816-3 0  9994
2 24967  86.3948 104.2463 0001918  98.9952 261.1463 14.37762619475734
